start=new Date('2022-08-05T00:00:00.000Z').valueOf();
sats=[{"ARG_OF_PERICENTER":"56.8007","MEAN_MOTION":"15.08803139","SEMIMAJOR_AXIS":"6917.993","TIME_SYSTEM":"UTC","EPOCH":"2022-08-04T22:00:00.999936","MEAN_ANOMALY":"254.2264","RCS_SIZE":"LARGE","GP_ID":"209591129","OBJECT_TYPE":"PAYLOAD","BSTAR":"0.00208230000000","INCLINATION":"53.2164","CLASSIFICATION_TYPE":"U","OBJECT_ID":"2022-029AY","REF_FRAME":"TEME","ELEMENT_SET_NO":"999","PERIOD":"95.440","FILE":"3529274","TLE_LINE1":"1 52134U 22029AY  22216.91667824  .00032974  00000-0  20823-2 0  9998","PERIAPSIS":"538.331","COUNTRY_CODE":"US","REV_AT_EPOCH":"130","OBJECT_NAME":"STARLINK-3721","RA_OF_ASC_NODE":"202.3715","MEAN_MOTION_DDOT":"0.0000000000000","MEAN_ELEMENT_THEORY":"SGP4","TLE_LINE2":"2 52134  53.2164 202.3715 0002208  56.8007 254.2264 15.08803139  1303","ECCENTRICITY":"0.00022080","LAUNCH_DATE":"2022-03-19","SITE":"AFETR","NORAD_CAT_ID":"52134","DECAY_DATE":null,"APOAPSIS":"541.386","MEAN_MOTION_DOT":"0.00032974","CENTER_NAME":"EARTH","EPHEMERIS_TYPE":"0"},{"MEAN_MOTION":"15.08829845","ARG_OF_PERICENTER":"55.7897","MEAN_ANOMALY":"335.2237","EPOCH":"2022-08-04T22:00:00.999936","SEMIMAJOR_AXIS":"6917.911","TIME_SYSTEM":"UTC","RCS_SIZE":"LARGE","GP_ID":"209591381","CLASSIFICATION_TYPE":"U","INCLINATION":"53.2173","OBJECT_TYPE":"PAYLOAD","BSTAR":"0.00226000000000","OBJECT_ID":"2022-029AZ","REF_FRAME":"TEME","ELEMENT_SET_NO":"999","FILE":"3529274","TLE_LINE1":"1 52135U 22029AZ  22216.91667824  .00035853  00000-0  22600-2 0  9993","PERIOD":"95.438","OBJECT_NAME":"STARLINK-3729","PERIAPSIS":"538.506","REV_AT_EPOCH":"130","COUNTRY_CODE":"US","RA_OF_ASC_NODE":"202.3699","MEAN_MOTION_DDOT":"0.0000000000000","ECCENTRICITY":"0.00018360","LAUNCH_DATE":"2022-03-19","SITE":"AFETR","MEAN_ELEMENT_THEORY":"SGP4","TLE_LINE2":"2 52135  53.2173 202.3699 0001836  55.7897 335.2237 15.08829845  1308","NORAD_CAT_ID":"52135","CENTER_NAME":"EARTH","EPHEMERIS_TYPE":"0","DECAY_DATE":null,"APOAPSIS":"541.047","MEAN_MOTION_DOT":"0.00035853"},{"REV_AT_EPOCH":"130","COUNTRY_CODE":"US","PERIAPSIS":"538.645","OBJECT_NAME":"STARLINK-3720","RA_OF_ASC_NODE":"202.3704","ELEMENT_SET_NO":"999","PERIOD":"95.439","TLE_LINE1":"1 52136U 22029BA  22216.91667824  .00035332  00000-0  22283-2 0  9993","FILE":"3529274","NORAD_CAT_ID":"52136","MEAN_MOTION_DOT":"0.00035332","APOAPSIS":"540.982","DECAY_DATE":null,"EPHEMERIS_TYPE":"0","CENTER_NAME":"EARTH","MEAN_MOTION_DDOT":"0.0000000000000","TLE_LINE2":"2 52136  53.2170 202.3704 0001689  62.0646 289.0370 15.08817781  1302","MEAN_ELEMENT_THEORY":"SGP4","SITE":"AFETR","LAUNCH_DATE":"2022-03-19","ECCENTRICITY":"0.00016890","SEMIMAJOR_AXIS":"6917.948","TIME_SYSTEM":"UTC","MEAN_ANOMALY":"289.0370","EPOCH":"2022-08-04T22:00:00.999936","ARG_OF_PERICENTER":"62.0646","MEAN_MOTION":"15.08817781","BSTAR":"0.00222830000000","OBJECT_TYPE":"PAYLOAD","INCLINATION":"53.2170","CLASSIFICATION_TYPE":"U","REF_FRAME":"TEME","OBJECT_ID":"2022-029BA","GP_ID":"209592130","RCS_SIZE":"LARGE"},{"MEAN_MOTION_DDOT":"0.0000000000000","MEAN_ELEMENT_THEORY":"SGP4","TLE_LINE2":"2 52137  53.2171 202.3768 0001985  59.5029 351.5897 15.08840007  1305","LAUNCH_DATE":"2022-03-19","ECCENTRICITY":"0.00019850","SITE":"AFETR","NORAD_CAT_ID":"52137","APOAPSIS":"541.119","DECAY_DATE":null,"MEAN_MOTION_DOT":"-0.00004791","CENTER_NAME":"EARTH","EPHEMERIS_TYPE":"0","ELEMENT_SET_NO":"999","PERIOD":"95.438","FILE":"3529274","TLE_LINE1":"1 52137U 22029BB  22216.91667824 -.00004791  00000-0 -28307-3 0  9995","PERIAPSIS":"538.372","COUNTRY_CODE":"US","REV_AT_EPOCH":"130","OBJECT_NAME":"STARLINK-3733","RA_OF_ASC_NODE":"202.3768","RCS_SIZE":"LARGE","GP_ID":"209590879","OBJECT_TYPE":"PAYLOAD","BSTAR":"-0.00028307000000","CLASSIFICATION_TYPE":"U","INCLINATION":"53.2171","OBJECT_ID":"2022-029BB","REF_FRAME":"TEME","ARG_OF_PERICENTER":"59.5029","MEAN_MOTION":"15.08840007","TIME_SYSTEM":"UTC","SEMIMAJOR_AXIS":"6917.880","MEAN_ANOMALY":"351.5897","EPOCH":"2022-08-04T22:00:00.999936"},{"TIME_SYSTEM":"UTC","SEMIMAJOR_AXIS":"6917.917","MEAN_ANOMALY":"307.7224","EPOCH":"2022-08-04T22:00:00.999936","ARG_OF_PERICENTER":"63.3668","MEAN_MOTION":"15.08828105","REF_FRAME":"TEME","OBJECT_ID":"2022-029BC","BSTAR":"0.00225170000000","OBJECT_TYPE":"PAYLOAD","CLASSIFICATION_TYPE":"U","INCLINATION":"53.2173","GP_ID":"209590630","RCS_SIZE":"LARGE","RA_OF_ASC_NODE":"202.3706","REV_AT_EPOCH":"130","COUNTRY_CODE":"US","PERIAPSIS":"538.543","OBJECT_NAME":"STARLINK-3723","PERIOD":"95.438","TLE_LINE1":"1 52138U 22029BC  22216.91667824  .00035718  00000-0  22517-2 0  9993","FILE":"3529274","ELEMENT_SET_NO":"999","MEAN_MOTION_DOT":"0.00035718","APOAPSIS":"541.020","DECAY_DATE":null,"EPHEMERIS_TYPE":"0","CENTER_NAME":"EARTH","NORAD_CAT_ID":"52138","TLE_LINE2":"2 52138  53.2173 202.3706 0001790  63.3668 307.7224 15.08828105  1308","MEAN_ELEMENT_THEORY":"SGP4","SITE":"AFETR","ECCENTRICITY":"0.00017900","LAUNCH_DATE":"2022-03-19","MEAN_MOTION_DDOT":"0.0000000000000"},{"MEAN_MOTION":"15.08839413","ARG_OF_PERICENTER":"52.1419","EPOCH":"2022-08-04T22:00:00.999936","MEAN_ANOMALY":"63.9780","TIME_SYSTEM":"UTC","SEMIMAJOR_AXIS":"6917.882","RCS_SIZE":"LARGE","GP_ID":"209591881","CLASSIFICATION_TYPE":"U","INCLINATION":"53.2157","OBJECT_TYPE":"PAYLOAD","BSTAR":"0.00121270000000","OBJECT_ID":"2022-029BD","REF_FRAME":"TEME","ELEMENT_SET_NO":"999","FILE":"3529274","TLE_LINE1":"1 52139U 22029BD  22216.91667824  .00019065  00000-0  12127-2 0  9997","PERIOD":"95.438","OBJECT_NAME":"STARLINK-3730","PERIAPSIS":"538.372","REV_AT_EPOCH":"130","COUNTRY_CODE":"US","RA_OF_ASC_NODE":"212.3767","MEAN_MOTION_DDOT":"0.0000000000000","ECCENTRICITY":"0.00019880","LAUNCH_DATE":"2022-03-19","SITE":"AFETR","MEAN_ELEMENT_THEORY":"SGP4","TLE_LINE2":"2 52139  53.2157 212.3767 0001988  52.1419  63.9780 15.08839413  1300","NORAD_CAT_ID":"52139","CENTER_NAME":"EARTH","EPHEMERIS_TYPE":"0","APOAPSIS":"541.122","DECAY_DATE":null,"MEAN_MOTION_DOT":"0.00019065"},{"NORAD_CAT_ID":"52140","MEAN_MOTION_DOT":"0.00034188","APOAPSIS":"541.192","DECAY_DATE":null,"EPHEMERIS_TYPE":"0","CENTER_NAME":"EARTH","MEAN_MOTION_DDOT":"0.0000000000000","TLE_LINE2":"2 52140  53.2169 202.3699 0002028  65.0778   5.9276 15.08825638  1305","MEAN_ELEMENT_THEORY":"SGP4","SITE":"AFETR","ECCENTRICITY":"0.00020280","LAUNCH_DATE":"2022-03-19","COUNTRY_CODE":"US","REV_AT_EPOCH":"130","PERIAPSIS":"538.386","OBJECT_NAME":"STARLINK-3682","RA_OF_ASC_NODE":"202.3699","ELEMENT_SET_NO":"999","PERIOD":"95.438","TLE_LINE1":"1 52140U 22029BE  22216.91667824  .00034188  00000-0  21566-2 0  9999","FILE":"3529274","BSTAR":"0.00215660000000","OBJECT_TYPE":"PAYLOAD","INCLINATION":"53.2169","CLASSIFICATION_TYPE":"U","OBJECT_ID":"2022-029BE","REF_FRAME":"TEME","GP_ID":"209591631","RCS_SIZE":"LARGE","SEMIMAJOR_AXIS":"6917.924","TIME_SYSTEM":"UTC","EPOCH":"2022-08-04T22:00:00.999936","MEAN_ANOMALY":"5.9276","ARG_OF_PERICENTER":"65.0778","MEAN_MOTION":"15.08825638"},{"TIME_SYSTEM":"UTC","SEMIMAJOR_AXIS":"6917.960","MEAN_ANOMALY":"50.9036","EPOCH":"2022-08-04T22:00:00.999936","ARG_OF_PERICENTER":"40.1949","MEAN_MOTION":"15.08813897","OBJECT_ID":"2022-041A","REF_FRAME":"TEME","OBJECT_TYPE":"PAYLOAD","BSTAR":"0.00240070000000","INCLINATION":"53.2143","CLASSIFICATION_TYPE":"U","RCS_SIZE":"LARGE","GP_ID":"209592537","RA_OF_ASC_NODE":"242.3790","PERIAPSIS":"538.367","REV_AT_EPOCH":"130","COUNTRY_CODE":"US","OBJECT_NAME":"STARLINK-3810","PERIOD":"95.439","FILE":"3529274","TLE_LINE1":"1 52261U 22041A   22216.91667824  .00038099  00000-0  24007-2 0  9995","ELEMENT_SET_NO":"999","APOAPSIS":"541.283","DECAY_DATE":null,"MEAN_MOTION_DOT":"0.00038099","CENTER_NAME":"EARTH","EPHEMERIS_TYPE":"0","NORAD_CAT_ID":"52261","MEAN_ELEMENT_THEORY":"SGP4","TLE_LINE2":"2 52261  53.2143 242.3790 0002108  40.1949  50.9036 15.08813897  1308","ECCENTRICITY":"0.00021080","LAUNCH_DATE":"2022-04-21","SITE":"AFETR","MEAN_MOTION_DDOT":"0.0000000000000"},{"REF_FRAME":"TEME","OBJECT_ID":"2022-041B","OBJECT_TYPE":"PAYLOAD","BSTAR":"0.00102650000000","INCLINATION":"53.2141","CLASSIFICATION_TYPE":"U","RCS_SIZE":"LARGE","GP_ID":"209592668","TIME_SYSTEM":"UTC","SEMIMAJOR_AXIS":"6917.953","MEAN_ANOMALY":"23.2192","EPOCH":"2022-08-04T22:00:00.999936","ARG_OF_PERICENTER":"42.7350","MEAN_MOTION":"15.08816335","APOAPSIS":"541.121","DECAY_DATE":null,"MEAN_MOTION_DOT":"0.00016076","CENTER_NAME":"EARTH","EPHEMERIS_TYPE":"0","NORAD_CAT_ID":"52262","MEAN_ELEMENT_THEORY":"SGP4","TLE_LINE2":"2 52262  53.2141 242.3792 0001884  42.7350  23.2192 15.08816335  1309","LAUNCH_DATE":"2022-04-21","ECCENTRICITY":"0.00018840","SITE":"AFETR","MEAN_MOTION_DDOT":"0.0000000000000","RA_OF_ASC_NODE":"242.3792","PERIAPSIS":"538.514","REV_AT_EPOCH":"130","COUNTRY_CODE":"US","OBJECT_NAME":"STARLINK-3761","PERIOD":"95.439","FILE":"3529274","TLE_LINE1":"1 52262U 22041B   22216.91667824  .00016076  00000-0  10265-2 0  9998","ELEMENT_SET_NO":"999"},{"RCS_SIZE":"LARGE","GP_ID":"209592929","OBJECT_ID":"2022-041C","REF_FRAME":"TEME","CLASSIFICATION_TYPE":"U","INCLINATION":"53.2140","OBJECT_TYPE":"PAYLOAD","BSTAR":"0.00247770000000","MEAN_MOTION":"15.08820760","ARG_OF_PERICENTER":"43.5131","EPOCH":"2022-08-04T22:00:00.999936","MEAN_ANOMALY":"27.6020","SEMIMAJOR_AXIS":"6917.939","TIME_SYSTEM":"UTC","ECCENTRICITY":"0.00016570","LAUNCH_DATE":"2022-04-21","SITE":"AFETR","MEAN_ELEMENT_THEORY":"SGP4","TLE_LINE2":"2 52263  53.2140 242.3791 0001657  43.5131  27.6020 15.08820760  1307","MEAN_MOTION_DDOT":"0.0000000000000","CENTER_NAME":"EARTH","EPHEMERIS_TYPE":"0","APOAPSIS":"540.951","DECAY_DATE":null,"MEAN_MOTION_DOT":"0.00039344","NORAD_CAT_ID":"52263","FILE":"3529274","TLE_LINE1":"1 52263U 22041C   22216.91667824  .00039344  00000-0  24777-2 0  9995","PERIOD":"95.439","ELEMENT_SET_NO":"999","RA_OF_ASC_NODE":"242.3791","OBJECT_NAME":"STARLINK-3786","PERIAPSIS":"538.658","REV_AT_EPOCH":"130","COUNTRY_CODE":"US"}];
